{
  "type": "FeatureCollection",
  "features": [
    {
      "type": "Feature",
      "properties": {
        "norad_id": 40233,
        "name": "COSMOS 2251 DEB",
        "group": "cosmos-2251-debris",
        "lat": 52.953982743594636,
        "lon": 135.76849186813791,
        "alt_km": 715.2975745385074,
        "timestamp": "2025-12-07T09:35:10.187505+00:00",
        "meta_object_name": "COSMOS 2251 DEB",
        "meta_object_id": "1993-036BVN",
        "meta_epoch": "2025-12-04T02:17:52.292832",
        "meta_mean_motion": 14.58236674,
        "meta_eccentricity": 0.00461905,
        "meta_inclination": 73.9387,
        "meta_ra_of_asc_node": 119.6526,
        "meta_arg_of_pericenter": 195.886,
        "meta_mean_anomaly": 164.0859,
        "meta_ephemeris_type": 0,
        "meta_classification_type": "U",
        "meta_norad_cat_id": 40233,
        "meta_element_set_no": 999,
        "meta_rev_at_epoch": 59011,
        "meta_bstar": 0.0029314151,
        "meta_mean_motion_dot": 0.00013736,
        "meta_mean_motion_ddot": 0,
        "tle_line1": "1 40233U 93036BVN 25338.09574413  .00013736  00000+0  29314-2 0  9997",
        "tle_line2": "2 40233  73.9387 119.6526 0046190 195.8860 164.0859 14.58236674590113"
      },
      "geometry": {
        "type": "Point",
        "coordinates": [
          135.76849186813791,
          52.953982743594636
        ]
      }
    },
    {
      "type": "Feature",
      "properties": {
        "norad_id": 40236,
        "name": "COSMOS 2251 DEB",
        "group": "cosmos-2251-debris",
        "lat": 17.063301854585642,
        "lon": -33.03316001548378,
        "alt_km": 1408.7206297633193,
        "timestamp": "2025-12-07T09:35:10.187515+00:00",
        "meta_object_name": "COSMOS 2251 DEB",
        "meta_object_id": "1993-036BVR",
        "meta_epoch": "2025-11-24T19:56:56.097312",
        "meta_mean_motion": 13.24604738,
        "meta_eccentricity": 0.0536049,
        "meta_inclination": 73.5357,
        "meta_ra_of_asc_node": 171.9764,
        "meta_arg_of_pericenter": 53.9086,
        "meta_mean_anomaly": 311.0422,
        "meta_ephemeris_type": 0,
        "meta_classification_type": "U",
        "meta_norad_cat_id": 40236,
        "meta_element_set_no": 999,
        "meta_rev_at_epoch": 53387,
        "meta_bstar": 0.0012678,
        "meta_mean_motion_dot": 1.163e-05,
        "meta_mean_motion_ddot": 0,
        "tle_line1": "1 40236U 93036BVR 25328.83120483  .00001163  00000+0  12678-2 0  9991",
        "tle_line2": "2 40236  73.5357 171.9764 0536049  53.9086 311.0422 13.24604738533877"
      },
      "geometry": {
        "type": "Point",
        "coordinates": [
          -33.03316001548378,
          17.063301854585642
        ]
      }
    },
    {
      "type": "Feature",
      "properties": {
        "norad_id": 40238,
        "name": "COSMOS 2251 DEB",
        "group": "cosmos-2251-debris",
        "lat": -58.15649712014148,
        "lon": -80.6634844864233,
        "alt_km": 1566.0213020919473,
        "timestamp": "2025-12-07T09:35:10.187525+00:00",
        "meta_object_name": "COSMOS 2251 DEB",
        "meta_object_id": "1993-036BVT",
        "meta_epoch": "2025-12-04T13:20:38.533056",
        "meta_mean_motion": 13.25091202,
        "meta_eccentricity": 0.0549745,
        "meta_inclination": 73.9885,
        "meta_ra_of_asc_node": 76.1652,
        "meta_arg_of_pericenter": 49.7266,
        "meta_mean_anomaly": 315.0566,
        "meta_ephemeris_type": 0,
        "meta_classification_type": "U",
        "meta_norad_cat_id": 40238,
        "meta_element_set_no": 999,
        "meta_rev_at_epoch": 53928,
        "meta_bstar": 0.0023519,
        "meta_mean_motion_dot": 2.29e-05,
        "meta_mean_motion_ddot": 0,
        "tle_line1": "1 40238U 93036BVT 25338.55600154  .00002290  00000+0  23519-2 0  9999",
        "tle_line2": "2 40238  73.9885  76.1652 0549745  49.7266 315.0566 13.25091202539282"
      },
      "geometry": {
        "type": "Point",
        "coordinates": [
          -80.6634844864233,
          -58.15649712014148
        ]
      }
    },
    {
      "type": "Feature",
      "properties": {
        "norad_id": 40239,
        "name": "COSMOS 2251 DEB",
        "group": "cosmos-2251-debris",
        "lat": -54.468229458577525,
        "lon": -97.57591943636238,
        "alt_km": 699.9524602590036,
        "timestamp": "2025-12-07T09:35:10.187539+00:00",
        "meta_object_name": "COSMOS 2251 DEB",
        "meta_object_id": "1993-036BVU",
        "meta_epoch": "2025-12-06T14:58:35.444640",
        "meta_mean_motion": 14.61949786,
        "meta_eccentricity": 0.00847262,
        "meta_inclination": 74.0319,
        "meta_ra_of_asc_node": 287.546,
        "meta_arg_of_pericenter": 40.551,
        "meta_mean_anomaly": 143.3634,
        "meta_ephemeris_type": 0,
        "meta_classification_type": "U",
        "meta_norad_cat_id": 40239,
        "meta_element_set_no": 999,
        "meta_rev_at_epoch": 59521,
        "meta_bstar": 0.00084913535,
        "meta_mean_motion_dot": 4.448e-05,
        "meta_mean_motion_ddot": 0,
        "tle_line1": "1 40239U 93036BVU 25340.62402135  .00004448  00000+0  84914-3 0  9994",
        "tle_line2": "2 40239  74.0319 287.5460 0084726  40.5510 143.3634 14.61949786595219"
      },
      "geometry": {
        "type": "Point",
        "coordinates": [
          -97.57591943636238,
          -54.468229458577525
        ]
      }
    },
    {
      "type": "Feature",
      "properties": {
        "norad_id": 40792,
        "name": "COSMOS 2251 DEB",
        "group": "cosmos-2251-debris",
        "lat": 0.357496228917629,
        "lon": 57.87103609572018,
        "alt_km": 682.5976786902911,
        "timestamp": "2025-12-07T09:35:10.187553+00:00",
        "meta_object_name": "COSMOS 2251 DEB",
        "meta_object_id": "1993-036BVV",
        "meta_epoch": "2025-12-05T11:50:21.887232",
        "meta_mean_motion": 14.67439318,
        "meta_eccentricity": 0.00160421,
        "meta_inclination": 74.0471,
        "meta_ra_of_asc_node": 61.4454,
        "meta_arg_of_pericenter": 169.1761,
        "meta_mean_anomaly": 205.7811,
        "meta_ephemeris_type": 0,
        "meta_classification_type": "U",
        "meta_norad_cat_id": 40792,
        "meta_element_set_no": 999,
        "meta_rev_at_epoch": 63078,
        "meta_bstar": 0.0022254154,
        "meta_mean_motion_dot": 0.00012612,
        "meta_mean_motion_ddot": 0,
        "tle_line1": "1 40792U 93036BVV 25339.49330888  .00012612  00000+0  22254-2 0  9996",
        "tle_line2": "2 40792  74.0471  61.4454 0016042 169.1761 205.7811 14.67439318630789"
      },
      "geometry": {
        "type": "Point",
        "coordinates": [
          57.87103609572018,
          0.357496228917629
        ]
      }
    },
    {
      "type": "Feature",
      "properties": {
        "norad_id": 40793,
        "name": "COSMOS 2251 DEB",
        "group": "cosmos-2251-debris",
        "lat": 61.593579767931296,
        "lon": -153.41872285716124,
        "alt_km": 876.6804672805265,
        "timestamp": "2025-12-07T09:35:10.187563+00:00",
        "meta_object_name": "COSMOS 2251 DEB",
        "meta_object_id": "1993-036BVW",
        "meta_epoch": "2025-11-17T22:59:08.433600",
        "meta_mean_motion": 14.0559149,
        "meta_eccentricity": 0.02150611,
        "meta_inclination": 73.9793,
        "meta_ra_of_asc_node": 208.5839,
        "meta_arg_of_pericenter": 10.058,
        "meta_mean_anomaly": 350.4754,
        "meta_ephemeris_type": 0,
        "meta_classification_type": "U",
        "meta_norad_cat_id": 40793,
        "meta_element_set_no": 999,
        "meta_rev_at_epoch": 67897,
        "meta_bstar": 0.0015211732,
        "meta_mean_motion_dot": 3.024e-05,
        "meta_mean_motion_ddot": 0,
        "tle_line1": "1 40793U 93036BVW 25321.95773650  .00003024  00000+0  15212-2 0  9990",
        "tle_line2": "2 40793  73.9793 208.5839 0215061  10.0580 350.4754 14.05591490678970"
      },
      "geometry": {
        "type": "Point",
        "coordinates": [
          -153.41872285716124,
          61.593579767931296
        ]
      }
    },
    {
      "type": "Feature",
      "properties": {
        "norad_id": 40794,
        "name": "COSMOS 2251 DEB",
        "group": "cosmos-2251-debris",
        "lat": -73.61611943406619,
        "lon": 57.18797870331641,
        "alt_km": 592.3258098452161,
        "timestamp": "2025-12-07T09:35:10.187573+00:00",
        "meta_object_name": "COSMOS 2251 DEB",
        "meta_object_id": "1993-036BVX",
        "meta_epoch": "2025-11-30T04:39:36.279360",
        "meta_mean_motion": 14.91253423,
        "meta_eccentricity": 0.00103638,
        "meta_inclination": 73.9758,
        "meta_ra_of_asc_node": 149.5129,
        "meta_arg_of_pericenter": 264.0956,
        "meta_mean_anomaly": 215.1976,
        "meta_ephemeris_type": 0,
        "meta_classification_type": "U",
        "meta_norad_cat_id": 40794,
        "meta_element_set_no": 999,
        "meta_rev_at_epoch": 61737,
        "meta_bstar": 0.0047311798,
        "meta_mean_motion_dot": 0.00047418,
        "meta_mean_motion_ddot": 0,
        "tle_line1": "1 40794U 93036BVX 25334.19416990  .00047418  00000+0  47312-2 0  9993",
        "tle_line2": "2 40794  73.9758 149.5129 0010363 264.0956 215.1976 14.91253423617370"
      },
      "geometry": {
        "type": "Point",
        "coordinates": [
          57.18797870331641,
          -73.61611943406619
        ]
      }
    }
  ]
}